{
  "norad_id": 61190,
  "name": "JILIN-01 KUANFU 02B 2",
  "history": [
    {
      "epoch": "2026-03-28T22:34:11.417088Z",
      "apogee_km": 545.073556624161,
      "perigee_km": 530.8476970935226,
      "latitude_deg": 8.986113408847942e-06,
      "longitude_deg": 13.13868135915108,
      "height_km": 536.882383642681,
      "semi_major_axis_km": 6916.097626858842,
      "eccentricity": 0.00102846,
      "inclination_deg": 97.5549,
      "raan_deg": 178.0399,
      "arg_perigee_deg": 305.7583,
      "mean_anomaly_deg": 54.2689,
      "mean_motion_rev_day": 15.09423438
    },
    {
      "epoch": "2026-03-29T04:56:01.954752Z",
      "apogee_km": 545.0551981517492,
      "perigee_km": 530.8315872161565,
      "latitude_deg": -4.46125139277179e-05,
      "longitude_deg": -82.32204685333485,
      "height_km": 536.9651605182323,
      "semi_major_axis_km": 6916.080392683953,
      "eccentricity": 0.0010283,
      "inclination_deg": 97.555,
      "raan_deg": 178.3011,
      "arg_perigee_deg": 304.7785,
      "mean_anomaly_deg": 55.2475,
      "mean_motion_rev_day": 15.0942908
    },
    {
      "epoch": "2026-03-30T04:47:56.040288Z",
      "apogee_km": 545.0036017040229,
      "perigee_km": 530.8035871555385,
      "latitude_deg": -1.474771362415571e-06,
      "longitude_deg": -80.29771000793235,
      "height_km": 537.3354266072433,
      "semi_major_axis_km": 6916.04059442978,
      "eccentricity": 0.0010266,
      "inclination_deg": 97.5552,
      "raan_deg": 179.2809,
      "arg_perigee_deg": 300.9057,
      "mean_anomaly_deg": 59.1162,
      "mean_motion_rev_day": 15.09442109
    }
  ]
}